STARLINK-1366           
1 45569U 20025AQ  26068.20531678  .00111184  00000+0  70244-3 0  9997
2 45569  53.0440  40.9129 0008507  56.1589 304.0238 15.75756697325969
STARLINK-36675          
1 67663U 26022R   26068.64645619  .00172757  00000+0  11366-2 0  9990
2 67663  97.2847 102.6452 0001222  74.3261 285.8139 15.75174589  5549
